{"type": "FeatureCollection", "features": [ {"type": "Feature", "properties": {"norad_id": 54234, "name": "NOAA 21 (JPSS-2)", "group": "weather", "lat": 22.265113513299017, "lon": 103.28485448880554, "alt_km": 827.2736919662984, "timestamp": "2025-12-09T07:41:32.845078+00:00", "meta": {"OBJECT_NAME": "NOAA 21 (JPSS-2)", "OBJECT_ID": "2022-150A", "EPOCH": "2025-12-08T22:29:43.789632", "MEAN_MOTION": 14.19522503, "ECCENTRICITY": 0.00023665, "INCLINATION": 98.7457, "RA_OF_ASC_NODE": 279.2931, "ARG_OF_PERICENTER": 45.4509, "MEAN_ANOMALY": 314.686, "EPHEMERIS_TYPE": 0, "CLASSIFICATION_TYPE": "U", "NORAD_CAT_ID": 54234, "ELEMENT_SET_NO": 999, "REV_AT_EPOCH": 15955, "BSTAR": 0.00010881071, "MEAN_MOTION_DOT": 1.85e-06, "MEAN_MOTION_DDOT": 0}, "tle": {"line1": "1 54234U 22150A   25342.93731238  .00000185  00000+0  10881-3 0  9994", "line2": "2 54234  98.7457 279.2931 0002366  45.4509 314.6860 14.19522503159552"}}, "geometry": {"type": "Point", "coordinates": [103.28485448880554, 22.265113513299017]}}, {"type": "Feature", "properties": {"norad_id": 54743, "name": "METEOSAT-12 (MTG-I1)", "group": "weather", "lat": 0.2088898590313535, "lon": -166.53684450355854, "alt_km": 35782.16973131736, "timestamp": "2025-12-09T07:41:32.845095+00:00", "meta": {"OBJECT_NAME": "METEOSAT-12 (MTG-I1)", "OBJECT_ID": "2022-170C", "EPOCH": "2025-12-08T22:09:44.807328", "MEAN_MOTION": 1.0027505, "ECCENTRICITY": 0.00014625, "INCLINATION": 0.7262, "RA_OF_ASC_NODE": 31.0199, "ARG_OF_PERICENTER": 223.8979, "MEAN_ANOMALY": 155.2153, "EPHEMERIS_TYPE": 0, "CLASSIFICATION_TYPE": "U", "NORAD_CAT_ID": 54743, "ELEMENT_SET_NO": 999, "REV_AT_EPOCH": 1107, "BSTAR": 0, "MEAN_MOTION_DOT": -4e-08, "MEAN_MOTION_DDOT": 0}, "tle": {"line1": "1 54743U 22170C   25342.92343527 -.00000004  00000+0  00000+0 0  9999", "line2": "2 54743   0.7262  31.0199 0001462 223.8979 155.2153  1.00275050 11079"}}, "geometry": {"type": "Point", "coordinates": [-166.53684450355854, 0.2088898590313535]}}, {"type": "Feature", "properties": {"norad_id": 55973, "name": "TIANMU-1 03", "group": "weather", "lat": 31.726029759653002, "lon": 141.1982016759724, "alt_km": 439.7292337371391, "timestamp": "2025-12-09T07:41:32.845110+00:00", "meta": {"OBJECT_NAME": "TIANMU-1 03", "OBJECT_ID": "2023-039A", "EPOCH": "2025-12-08T23:45:37.872288", "MEAN_MOTION": 15.40753393, "ECCENTRICITY": 0.0004507, "INCLINATION": 97.5111, "RA_OF_ASC_NODE": 145.5376, "ARG_OF_PERICENTER": 71.7994, "MEAN_ANOMALY": 288.3742, "EPHEMERIS_TYPE": 0, "CLASSIFICATION_TYPE": "U", "NORAD_CAT_ID": 55973, "ELEMENT_SET_NO": 999, "REV_AT_EPOCH": 15148, "BSTAR": 0.00046200944, "MEAN_MOTION_DOT": 0.00018837, "MEAN_MOTION_DDOT": 0}, "tle": {"line1": "1 55973U 23039A   25342.99002167  .00018837  00000+0  46201-3 0  9998", "line2": "2 55973  97.5111 145.5376 0004507  71.7994 288.3742 15.40753393151482"}}, "geometry": {"type": "Point", "coordinates": [141.1982016759724, 31.726029759653002]}}, {"type": "Feature", "properties": {"norad_id": 55974, "name": "TIANMU-1 04", "group": "weather", "lat": 37.46171282103886, "lon": -29.13301771479363, "alt_km": 439.38734441596625, "timestamp": "2025-12-09T07:41:32.845121+00:00", "meta": {"OBJECT_NAME": "TIANMU-1 04", "OBJECT_ID": "2023-039B", "EPOCH": "2025-12-08T23:17:12.403680", "MEAN_MOTION": 15.41086757, "ECCENTRICITY": 0.00051779, "INCLINATION": 97.5044, "RA_OF_ASC_NODE": 144.7098, "ARG_OF_PERICENTER": 67.2105, "MEAN_ANOMALY": 292.9688, "EPHEMERIS_TYPE": 0, "CLASSIFICATION_TYPE": "U", "NORAD_CAT_ID": 55974, "ELEMENT_SET_NO": 999, "REV_AT_EPOCH": 15148, "BSTAR": 0.00045067636, "MEAN_MOTION_DOT": 0.00018579, "MEAN_MOTION_DDOT": 0}, "tle": {"line1": "1 55974U 23039B   25342.97028245  .00018579  00000+0  45068-3 0  9995", "line2": "2 55974  97.5044 144.7098 0005177  67.2105 292.9688 15.41086757151482"}}, "geometry": {"type": "Point", "coordinates": [-29.13301771479363, 37.46171282103886]}}, {"type": "Feature", "properties": {"norad_id": 55975, "name": "TIANMU-1 05", "group": "weather", "lat": 1.2683503801395495, "lon": -34.27108509859545, "alt_km": 447.00084352409704, "timestamp": "2025-12-09T07:41:32.845131+00:00", "meta": {"OBJECT_NAME": "TIANMU-1 05", "OBJECT_ID": "2023-039C", "EPOCH": "2025-12-08T23:07:35.408928", "MEAN_MOTION": 15.40710015, "ECCENTRICITY": 0.00043742, "INCLINATION": 97.509, "RA_OF_ASC_NODE": 145.195, "ARG_OF_PERICENTER": 88.3464, "MEAN_ANOMALY": 271.8283, "EPHEMERIS_TYPE": 0, "CLASSIFICATION_TYPE": "U", "NORAD_CAT_ID": 55975, "ELEMENT_SET_NO": 999, "REV_AT_EPOCH": 15146, "BSTAR": 0.00044988935, "MEAN_MOTION_DOT": 0.00018313, "MEAN_MOTION_DDOT": 0}, "tle": {"line1": "1 55975U 23039C   25342.96360427  .00018313  00000+0  44989-3 0  9993", "line2": "2 55975  97.5090 145.1950 0004374  88.3464 271.8283 15.40710015151461"}}, "geometry": {"type": "Point", "coordinates": [-34.27108509859545, 1.2683503801395495]}}, {"type": "Feature", "properties": {"norad_id": 55976, "name": "TIANMU-1 06", "group": "weather", "lat": 49.985409190232495, "lon": -24.93481567472462, "alt_km": 436.00601318580175, "timestamp": "2025-12-09T07:41:32.845141+00:00", "meta": {"OBJECT_NAME": "TIANMU-1 06", "OBJECT_ID": "2023-039D", "EPOCH": "2025-12-08T23:20:31.326720", "MEAN_MOTION": 15.41139469, "ECCENTRICITY": 0.00046903, "INCLINATION": 97.5102, "RA_OF_ASC_NODE": 145.6664, "ARG_OF_PERICENTER": 83.9248, "MEAN_ANOMALY": 276.2533, "EPHEMERIS_TYPE": 0, "CLASSIFICATION_TYPE": "U", "NORAD_CAT_ID": 55976, "ELEMENT_SET_NO": 999, "REV_AT_EPOCH": 15148, "BSTAR": 0.00045312543, "MEAN_MOTION_DOT": 0.00018711, "MEAN_MOTION_DDOT": 0}, "tle": {"line1": "1 55976U 23039D   25342.97258480  .00018711  00000+0  45313-3 0  9994", "line2": "2 55976  97.5102 145.6664 0004690  83.9248 276.2533 15.41139469151483"}}, "geometry": {"type": "Point", "coordinates": [-24.93481567472462, 49.985409190232495]}}, {"type": "Feature", "properties": {"norad_id": 56232, "name": "FENGYUN 3G", "group": "weather", "lat": 22.817045485231485, "lon": -94.21281767411246, "alt_km": 405.45564123953045, "timestamp": "2025-12-09T07:41:32.845151+00:00", "meta": {"OBJECT_NAME": "FENGYUN 3G", "OBJECT_ID": "2023-055A", "EPOCH": "2025-12-08T22:17:54.639168", "MEAN_MOTION": 15.53297787, "ECCENTRICITY": 0.00092539, "INCLINATION": 49.9937, "RA_OF_ASC_NODE": 247.1147, "ARG_OF_PERICENTER": 130.4589, "MEAN_ANOMALY": 229.7187, "EPHEMERIS_TYPE": 0, "CLASSIFICATION_TYPE": "U", "NORAD_CAT_ID": 56232, "ELEMENT_SET_NO": 999, "REV_AT_EPOCH": 15043, "BSTAR": 0.00056984533, "MEAN_MOTION_DOT": 0.00036407, "MEAN_MOTION_DDOT": 0}, "tle": {"line1": "1 56232U 23055A   25342.92910462  .00036407  00000+0  56985-3 0  9997", "line2": "2 56232  49.9937 247.1147 0009253 130.4589 229.7187 15.53297787150439"}}, "geometry": {"type": "Point", "coordinates": [-94.21281767411246, 22.817045485231485]}}, {"type": "Feature", "properties": {"norad_id": 57166, "name": "METEOR-M2 3", "group": "weather", "lat": 8.368664049365272, "lon": 35.63807741991868, "alt_km": 810.6140560015019, "timestamp": "2025-12-09T07:41:32.845162+00:00", "meta": {"OBJECT_NAME": "METEOR-M2 3", "OBJECT_ID": "2023-091A", "EPOCH": "2025-12-08T23:13:16.525632", "MEAN_MOTION": 14.24025342, "ECCENTRICITY": 0.00041261, "INCLINATION": 98.6383, "RA_OF_ASC_NODE": 36.5727, "ARG_OF_PERICENTER": 19.1751, "MEAN_ANOMALY": 340.9582, "EPHEMERIS_TYPE": 0, "CLASSIFICATION_TYPE": "U", "NORAD_CAT_ID": 57166, "ELEMENT_SET_NO": 999, "REV_AT_EPOCH": 12744, "BSTAR": 3.1733032e-05, "MEAN_MOTION_DOT": 2.9e-07, "MEAN_MOTION_DDOT": 0}, "tle": {"line1": "1 57166U 23091A   25342.96755238  .00000029  00000+0  31733-4 0  9992", "line2": "2 57166  98.6383  36.5727 0004126  19.1751 340.9582 14.24025342127447"}}, "geometry": {"type": "Point", "coordinates": [35.63807741991868, 8.368664049365272]}}, {"type": "Feature", "properties": {"norad_id": 57399, "name": "TIANMU-1 07", "group": "weather", "lat": -2.5807631167475003, "lon": 33.576125087099136, "alt_km": 485.4021050030715, "timestamp": "2025-12-09T07:41:32.845172+00:00", "meta": {"OBJECT_NAME": "TIANMU-1 07", "OBJECT_ID": "2023-101A", "EPOCH": "2025-12-08T23:50:43.027584", "MEAN_MOTION": 15.27986358, "ECCENTRICITY": 0.00056418, "INCLINATION": 97.2876, "RA_OF_ASC_NODE": 32.9259, "ARG_OF_PERICENTER": 90.9639, "MEAN_ANOMALY": 269.2247, "EPHEMERIS_TYPE": 0, "CLASSIFICATION_TYPE": "U", "NORAD_CAT_ID": 57399, "ELEMENT_SET_NO": 999, "REV_AT_EPOCH": 13258, "BSTAR": 0.00032545081, "MEAN_MOTION_DOT": 8.819e-05, "MEAN_MOTION_DDOT": 0}, "tle": {"line1": "1 57399U 23101A   25342.99355356  .00008819  00000+0  32545-3 0  9998", "line2": "2 57399  97.2876  32.9259 0005641  90.9639 269.2247 15.27986358132581"}}, "geometry": {"type": "Point", "coordinates": [33.576125087099136, -2.5807631167475003]}}, {"type": "Feature", "properties": {"norad_id": 57400, "name": "TIANMU-1 08", "group": "weather", "lat": 0.2685304814267055, "lon": -146.92130648868059, "alt_km": 484.6112157642083, "timestamp": "2025-12-09T07:41:32.845182+00:00", "meta": {"OBJECT_NAME": "TIANMU-1 08", "OBJECT_ID": "2023-101B", "EPOCH": "2025-12-08T23:03:03.609216", "MEAN_MOTION": 15.27969819, "ECCENTRICITY": 0.00075561, "INCLINATION": 97.2865, "RA_OF_ASC_NODE": 32.6923, "ARG_OF_PERICENTER": 94.3797, "MEAN_ANOMALY": 265.8306, "EPHEMERIS_TYPE": 0, "CLASSIFICATION_TYPE": "U", "NORAD_CAT_ID": 57400, "ELEMENT_SET_NO": 999, "REV_AT_EPOCH": 13257, "BSTAR": 0.00034158036, "MEAN_MOTION_DOT": 9.259e-05, "MEAN_MOTION_DDOT": 0}, "tle": {"line1": "1 57400U 23101B   25342.96045844  .00009259  00000+0  34158-3 0  9997", "line2": "2 57400  97.2865  32.6923 0007556  94.3797 265.8306 15.27969819132577"}}, "geometry": {"type": "Point", "coordinates": [-146.92130648868059, 0.2685304814267055]}}]}